{
  "type": "FeatureCollection",
  "features": [
    {
      "type": "Feature",
      "properties": {
        "norad_id": 67075,
        "name": "STARLINK-36230",
        "group": "last-30-days",
        "lat": -21.352744798819227,
        "lon": 39.2159021208351,
        "alt_km": 345.0828839872711,
        "timestamp": "2025-12-26T10:30:48.978071+00:00",
        "meta_object_name": "STARLINK-36230",
        "meta_object_id": "2025-298A",
        "meta_epoch": "2025-12-26T04:00:01.998720",
        "meta_mean_motion": 15.77331927,
        "meta_eccentricity": 0.0003768,
        "meta_inclination": 69.9968,
        "meta_ra_of_asc_node": 211.7984,
        "meta_arg_of_pericenter": 277.4552,
        "meta_mean_anomaly": 185.2756,
        "meta_ephemeris_type": 0,
        "meta_classification_type": "U",
        "meta_norad_cat_id": 67075,
        "meta_element_set_no": 999,
        "meta_rev_at_epoch": 313,
        "meta_bstar": -0.012161,
        "meta_mean_motion_dot": -0.01770132,
        "meta_mean_motion_ddot": 0,
        "tle_line1": "1 67075U 25298A   25360.16668980 -.01770132  00000+0 -12161-1 0  9995",
        "tle_line2": "2 67075  69.9968 211.7984 0003768 277.4552 185.2756 15.77331927  3138"
      },
      "geometry": {
        "type": "Point",
        "coordinates": [
          39.2159021208351,
          -21.352744798819227
        ]
      }
    },
    {
      "type": "Feature",
      "properties": {
        "norad_id": 67076,
        "name": "STARLINK-36240",
        "group": "last-30-days",
        "lat": -23.15188567615995,
        "lon": 39.987452346477795,
        "alt_km": 345.1295780587907,
        "timestamp": "2025-12-26T10:30:48.978084+00:00",
        "meta_object_name": "STARLINK-36240",
        "meta_object_id": "2025-298B",
        "meta_epoch": "2025-12-26T04:00:01.998720",
        "meta_mean_motion": 15.77330102,
        "meta_eccentricity": 0.0003473,
        "meta_inclination": 69.9967,
        "meta_ra_of_asc_node": 211.796,
        "meta_arg_of_pericenter": 275.3092,
        "meta_mean_anomaly": 189.3566,
        "meta_ephemeris_type": 0,
        "meta_classification_type": "U",
        "meta_norad_cat_id": 67076,
        "meta_element_set_no": 999,
        "meta_rev_at_epoch": 313,
        "meta_bstar": -0.012152,
        "meta_mean_motion_dot": -0.01768583,
        "meta_mean_motion_ddot": 0,
        "tle_line1": "1 67076U 25298B   25360.16668980 -.01768583  00000+0 -12152-1 0  9993",
        "tle_line2": "2 67076  69.9967 211.7960 0003473 275.3092 189.3566 15.77330102  3139"
      },
      "geometry": {
        "type": "Point",
        "coordinates": [
          39.987452346477795,
          -23.15188567615995
        ]
      }
    },
    {
      "type": "Feature",
      "properties": {
        "norad_id": 67077,
        "name": "STARLINK-36243",
        "group": "last-30-days",
        "lat": -25.167231464565557,
        "lon": 40.87897396072481,
        "alt_km": 345.28371062778297,
        "timestamp": "2025-12-26T10:30:48.978094+00:00",
        "meta_object_name": "STARLINK-36243",
        "meta_object_id": "2025-298C",
        "meta_epoch": "2025-12-26T04:00:01.998720",
        "meta_mean_motion": 15.77319548,
        "meta_eccentricity": 0.0003724,
        "meta_inclination": 69.9965,
        "meta_ra_of_asc_node": 211.7933,
        "meta_arg_of_pericenter": 278.0299,
        "meta_mean_anomaly": 188.8252,
        "meta_ephemeris_type": 0,
        "meta_classification_type": "U",
        "meta_norad_cat_id": 67077,
        "meta_element_set_no": 999,
        "meta_rev_at_epoch": 313,
        "meta_bstar": -0.012161,
        "meta_mean_motion_dot": -0.01769279,
        "meta_mean_motion_ddot": 0,
        "tle_line1": "1 67077U 25298C   25360.16668980 -.01769279  00000+0 -12161-1 0  9997",
        "tle_line2": "2 67077  69.9965 211.7933 0003724 278.0299 188.8252 15.77319548  3133"
      },
      "geometry": {
        "type": "Point",
        "coordinates": [
          40.87897396072481,
          -25.167231464565557
        ]
      }
    },
    {
      "type": "Feature",
      "properties": {
        "norad_id": 67078,
        "name": "STARLINK-36236",
        "group": "last-30-days",
        "lat": -26.85289756320649,
        "lon": 41.64922187216524,
        "alt_km": 345.33183566579737,
        "timestamp": "2025-12-26T10:30:48.978107+00:00",
        "meta_object_name": "STARLINK-36236",
        "meta_object_id": "2025-298D",
        "meta_epoch": "2025-12-26T04:00:01.998720",
        "meta_mean_motion": 15.77323604,
        "meta_eccentricity": 0.0003695,
        "meta_inclination": 69.997,
        "meta_ra_of_asc_node": 211.7911,
        "meta_arg_of_pericenter": 278.0924,
        "meta_mean_anomaly": 190.5826,
        "meta_ephemeris_type": 0,
        "meta_classification_type": "U",
        "meta_norad_cat_id": 67078,
        "meta_element_set_no": 999,
        "meta_rev_at_epoch": 313,
        "meta_bstar": -0.012159,
        "meta_mean_motion_dot": -0.01769265,
        "meta_mean_motion_ddot": 0,
        "tle_line1": "1 67078U 25298D   25360.16668980 -.01769265  00000+0 -12159-1 0  9990",
        "tle_line2": "2 67078  69.9970 211.7911 0003695 278.0924 190.5826 15.77323604  3133"
      },
      "geometry": {
        "type": "Point",
        "coordinates": [
          41.64922187216524,
          -26.85289756320649
        ]
      }
    },
    {
      "type": "Feature",
      "properties": {
        "norad_id": 67079,
        "name": "STARLINK-36159",
        "group": "last-30-days",
        "lat": -28.870918059103442,
        "lon": 42.60509753491262,
        "alt_km": 345.43248305845555,
        "timestamp": "2025-12-26T10:30:48.978117+00:00",
        "meta_object_name": "STARLINK-36159",
        "meta_object_id": "2025-298E",
        "meta_epoch": "2025-12-26T04:00:01.998720",
        "meta_mean_motion": 15.77309915,
        "meta_eccentricity": 0.0003737,
        "meta_inclination": 69.9968,
        "meta_ra_of_asc_node": 211.7881,
        "meta_arg_of_pericenter": 278.6644,
        "meta_mean_anomaly": 192.2143,
        "meta_ephemeris_type": 0,
        "meta_classification_type": "U",
        "meta_norad_cat_id": 67079,
        "meta_element_set_no": 999,
        "meta_rev_at_epoch": 313,
        "meta_bstar": -0.012153,
        "meta_mean_motion_dot": -0.01767546,
        "meta_mean_motion_ddot": 0,
        "tle_line1": "1 67079U 25298E   25360.16668980 -.01767546  00000+0 -12153-1 0  9995",
        "tle_line2": "2 67079  69.9968 211.7881 0003737 278.6644 192.2143 15.77309915  3139"
      },
      "geometry": {
        "type": "Point",
        "coordinates": [
          42.60509753491262,
          -28.870918059103442
        ]
      }
    },
    {
      "type": "Feature",
      "properties": {
        "norad_id": 67080,
        "name": "STARLINK-36158",
        "group": "last-30-days",
        "lat": -30.802996219839628,
        "lon": 43.55989954796069,
        "alt_km": 345.41004672640156,
        "timestamp": "2025-12-26T10:30:48.978127+00:00",
        "meta_object_name": "STARLINK-36158",
        "meta_object_id": "2025-298F",
        "meta_epoch": "2025-12-26T04:00:01.998720",
        "meta_mean_motion": 15.77304936,
        "meta_eccentricity": 0.0003536,
        "meta_inclination": 69.9967,
        "meta_ra_of_asc_node": 211.7861,
        "meta_arg_of_pericenter": 274.8656,
        "meta_mean_anomaly": 198.1204,
        "meta_ephemeris_type": 0,
        "meta_classification_type": "U",
        "meta_norad_cat_id": 67080,
        "meta_element_set_no": 999,
        "meta_rev_at_epoch": 307,
        "meta_bstar": -0.012191,
        "meta_mean_motion_dot": -0.01771873,
        "meta_mean_motion_ddot": 0,
        "tle_line1": "1 67080U 25298F   25360.16668980 -.01771873  00000+0 -12191-1 0  9997",
        "tle_line2": "2 67080  69.9967 211.7861 0003536 274.8656 198.1204 15.77304936  3070"
      },
      "geometry": {
        "type": "Point",
        "coordinates": [
          43.55989954796069,
          -30.802996219839628
        ]
      }
    },
    {
      "type": "Feature",
      "properties": {
        "norad_id": 67081,
        "name": "STARLINK-35864",
        "group": "last-30-days",
        "lat": -32.58857616759284,
        "lon": 44.47972069797894,
        "alt_km": 345.4578046877241,
        "timestamp": "2025-12-26T10:30:48.978137+00:00",
        "meta_object_name": "STARLINK-35864",
        "meta_object_id": "2025-298G",
        "meta_epoch": "2025-12-26T04:00:01.998720",
        "meta_mean_motion": 15.77302142,
        "meta_eccentricity": 0.0003711,
        "meta_inclination": 69.9969,
        "meta_ra_of_asc_node": 211.7837,
        "meta_arg_of_pericenter": 276.5628,
        "meta_mean_anomaly": 198.3795,
        "meta_ephemeris_type": 0,
        "meta_classification_type": "U",
        "meta_norad_cat_id": 67081,
        "meta_element_set_no": 999,
        "meta_rev_at_epoch": 313,
        "meta_bstar": -0.012176,
        "meta_mean_motion_dot": -0.01769945,
        "meta_mean_motion_ddot": 0,
        "tle_line1": "1 67081U 25298G   25360.16668980 -.01769945  00000+0 -12176-1 0  9998",
        "tle_line2": "2 67081  69.9969 211.7837 0003711 276.5628 198.3795 15.77302142  3130"
      },
      "geometry": {
        "type": "Point",
        "coordinates": [
          44.47972069797894,
          -32.58857616759284
        ]
      }
    }
  ]
}